CCSDS_OMM_VERS = 2.0
CREATION_DATE  = 
ORIGINATOR     = 

OBJECT_NAME    = STARLINK-36579
OBJECT_ID      = 2026-014K
CENTER_NAME    = EARTH
REF_FRAME      = TEME
TIME_SYSTEM    = UTC
MEAN_ELEMENT_THEORY = SGP/SGP4

EPOCH          = 2026-02-09T12:00:01.999296
MEAN_MOTION    = 15.75122658
ECCENTRICITY   = .000163
INCLINATION    = 97.2840
RA_OF_ASC_NODE = 284.0083
ARG_OF_PERICENTER = 80.9928
MEAN_ANOMALY   = 276.1643

EPHEMERIS_TYPE = 0
CLASSIFICATION_TYPE = U
NORAD_CAT_ID   = 67541
ELEMENT_SET_NO = 999
REV_AT_EPOCH   = 415
BSTAR          = .66394E-3
MEAN_MOTION_DOT = .99776E-3
MEAN_MOTION_DDOT = 0

CCSDS_OMM_VERS = 2.0
CREATION_DATE  = 
ORIGINATOR     = 

OBJECT_NAME    = STARLINK-35934
OBJECT_ID      = 2026-014L
CENTER_NAME    = EARTH
REF_FRAME      = TEME
TIME_SYSTEM    = UTC
MEAN_ELEMENT_THEORY = SGP/SGP4

EPOCH          = 2026-02-09T11:54:53.615232
MEAN_MOTION    = 15.80913418
ECCENTRICITY   = .0001508
INCLINATION    = 97.2841
RA_OF_ASC_NODE = 284.0132
ARG_OF_PERICENTER = 81.9310
MEAN_ANOMALY   = 278.2129

EPHEMERIS_TYPE = 0
CLASSIFICATION_TYPE = U
NORAD_CAT_ID   = 67542
ELEMENT_SET_NO = 999
REV_AT_EPOCH   = 412
BSTAR          = .13695E-2
MEAN_MOTION_DOT = .27173E-2
MEAN_MOTION_DDOT = 0

CCSDS_OMM_VERS = 2.0
CREATION_DATE  = 
ORIGINATOR     = 

OBJECT_NAME    = STARLINK-36581
OBJECT_ID      = 2026-014M
CENTER_NAME    = EARTH
REF_FRAME      = TEME
TIME_SYSTEM    = UTC
MEAN_ELEMENT_THEORY = SGP/SGP4

EPOCH          = 2026-02-09T10:22:01.216992
MEAN_MOTION    = 15.80887807
ECCENTRICITY   = .0001493
INCLINATION    = 97.2841
RA_OF_ASC_NODE = 283.9469
ARG_OF_PERICENTER = 80.0370
MEAN_ANOMALY   = 280.1066

EPHEMERIS_TYPE = 0
CLASSIFICATION_TYPE = U
NORAD_CAT_ID   = 67543
ELEMENT_SET_NO = 999
REV_AT_EPOCH   = 412
BSTAR          = .1011E-2
MEAN_MOTION_DOT = .19864E-2
MEAN_MOTION_DDOT = 0

CCSDS_OMM_VERS = 2.0
CREATION_DATE  = 
ORIGINATOR     = 

OBJECT_NAME    = STARLINK-36565
OBJECT_ID      = 2026-014N
CENTER_NAME    = EARTH
REF_FRAME      = TEME
TIME_SYSTEM    = UTC
MEAN_ELEMENT_THEORY = SGP/SGP4

EPOCH          = 2026-02-09T11:51:39.050208
MEAN_MOTION    = 15.80859232
ECCENTRICITY   = .000164
INCLINATION    = 97.2847
RA_OF_ASC_NODE = 284.0158
ARG_OF_PERICENTER = 99.9211
MEAN_ANOMALY   = 260.2243

EPHEMERIS_TYPE = 0
CLASSIFICATION_TYPE = U
NORAD_CAT_ID   = 67544
ELEMENT_SET_NO = 999
REV_AT_EPOCH   = 413
BSTAR          = .73172E-3
MEAN_MOTION_DOT = .142613E-2
MEAN_MOTION_DDOT = 0

CCSDS_OMM_VERS = 2.0
CREATION_DATE  = 
ORIGINATOR     = 

OBJECT_NAME    = STARLINK-36583
OBJECT_ID      = 2026-014P
CENTER_NAME    = EARTH
REF_FRAME      = TEME
TIME_SYSTEM    = UTC
MEAN_ELEMENT_THEORY = SGP/SGP4

EPOCH          = 2026-02-09T12:00:01.999296
MEAN_MOTION    = 15.75212812
ECCENTRICITY   = .0001481
INCLINATION    = 97.2843
RA_OF_ASC_NODE = 283.9965
ARG_OF_PERICENTER = 95.2155
MEAN_ANOMALY   = 239.9353

EPHEMERIS_TYPE = 0
CLASSIFICATION_TYPE = U
NORAD_CAT_ID   = 67545
ELEMENT_SET_NO = 999
REV_AT_EPOCH   = 415
BSTAR          = -.74145E-3
MEAN_MOTION_DOT = -.109428E-2
MEAN_MOTION_DDOT = 0

CCSDS_OMM_VERS = 2.0
CREATION_DATE  = 
ORIGINATOR     = 

OBJECT_NAME    = STARLINK-36580
OBJECT_ID      = 2026-014Q
CENTER_NAME    = EARTH
REF_FRAME      = TEME
TIME_SYSTEM    = UTC
MEAN_ELEMENT_THEORY = SGP/SGP4

EPOCH          = 2026-02-09T11:48:08.854560
MEAN_MOTION    = 15.80867459
ECCENTRICITY   = .0001887
INCLINATION    = 97.2843
RA_OF_ASC_NODE = 284.0155
ARG_OF_PERICENTER = 109.5969
MEAN_ANOMALY   = 250.5503

EPHEMERIS_TYPE = 0
CLASSIFICATION_TYPE = U
NORAD_CAT_ID   = 67546
ELEMENT_SET_NO = 999
REV_AT_EPOCH   = 413
BSTAR          = .98251E-3
MEAN_MOTION_DOT = .192727E-2
MEAN_MOTION_DDOT = 0

CCSDS_OMM_VERS = 2.0
CREATION_DATE  = 
ORIGINATOR     = 

OBJECT_NAME    = STARLINK-36584
OBJECT_ID      = 2026-014R
CENTER_NAME    = EARTH
REF_FRAME      = TEME
TIME_SYSTEM    = UTC
MEAN_ELEMENT_THEORY = SGP/SGP4

EPOCH          = 2026-02-09T10:15:35.985312
MEAN_MOTION    = 15.80881666
ECCENTRICITY   = .0001451
INCLINATION    = 97.2761
RA_OF_ASC_NODE = 283.9474
ARG_OF_PERICENTER = 71.4842
MEAN_ANOMALY   = 288.6584

EPHEMERIS_TYPE = 0
CLASSIFICATION_TYPE = U
NORAD_CAT_ID   = 67547
ELEMENT_SET_NO = 999
REV_AT_EPOCH   = 412
BSTAR          = .99035E-3
MEAN_MOTION_DOT = .194426E-2
MEAN_MOTION_DDOT = 0

CCSDS_OMM_VERS = 2.0
CREATION_DATE  = 
ORIGINATOR     = 

OBJECT_NAME    = STARLINK-36586
OBJECT_ID      = 2026-014S
CENTER_NAME    = EARTH
REF_FRAME      = TEME
TIME_SYSTEM    = UTC
MEAN_ELEMENT_THEORY = SGP/SGP4

EPOCH          = 2026-02-09T10:13:37.842816
MEAN_MOTION    = 15.80893972
ECCENTRICITY   = .0001523
INCLINATION    = 97.2850
RA_OF_ASC_NODE = 283.9556
ARG_OF_PERICENTER = 70.9821
MEAN_ANOMALY   = 289.1612

EPHEMERIS_TYPE = 0
CLASSIFICATION_TYPE = U
NORAD_CAT_ID   = 67548
ELEMENT_SET_NO = 999
REV_AT_EPOCH   = 412
BSTAR          = .11618E-2
MEAN_MOTION_DOT = .229154E-2
MEAN_MOTION_DDOT = 0

CCSDS_OMM_VERS = 2.0
CREATION_DATE  = 
ORIGINATOR     = 

OBJECT_NAME    = STARLINK-36564
OBJECT_ID      = 2026-014T
CENTER_NAME    = EARTH
REF_FRAME      = TEME
TIME_SYSTEM    = UTC
MEAN_ELEMENT_THEORY = SGP/SGP4

EPOCH          = 2026-02-09T12:00:01.999296
MEAN_MOTION    = 15.75167378
ECCENTRICITY   = .0001806
INCLINATION    = 97.2869
RA_OF_ASC_NODE = 284.0218
ARG_OF_PERICENTER = 101.2014
MEAN_ANOMALY   = 289.9444

EPHEMERIS_TYPE = 0
CLASSIFICATION_TYPE = U
NORAD_CAT_ID   = 67549
ELEMENT_SET_NO = 999
REV_AT_EPOCH   = 409
BSTAR          = .57206E-4
MEAN_MOTION_DOT = .8403E-4
MEAN_MOTION_DDOT = 0

CCSDS_OMM_VERS = 2.0
CREATION_DATE  = 
ORIGINATOR     = 

OBJECT_NAME    = STARLINK-36563
OBJECT_ID      = 2026-014U
CENTER_NAME    = EARTH
REF_FRAME      = TEME
TIME_SYSTEM    = UTC
MEAN_ELEMENT_THEORY = SGP/SGP4

EPOCH          = 2026-02-09T12:00:01.999296
MEAN_MOTION    = 15.75125647
ECCENTRICITY   = .0001273
INCLINATION    = 97.2849
RA_OF_ASC_NODE = 284.0310
ARG_OF_PERICENTER = 101.3533
MEAN_ANOMALY   = 313.8085

EPHEMERIS_TYPE = 0
CLASSIFICATION_TYPE = U
NORAD_CAT_ID   = 67550
ELEMENT_SET_NO = 999
REV_AT_EPOCH   = 415
BSTAR          = .48316E-3
MEAN_MOTION_DOT = .72347E-3
MEAN_MOTION_DDOT = 0

CCSDS_OMM_VERS = 2.0
CREATION_DATE  = 
ORIGINATOR     = 

OBJECT_NAME    = STARLINK-36566
OBJECT_ID      = 2026-014V
CENTER_NAME    = EARTH
REF_FRAME      = TEME
TIME_SYSTEM    = UTC
MEAN_ELEMENT_THEORY = SGP/SGP4

EPOCH          = 2026-02-09T12:00:01.999296
MEAN_MOTION    = 15.75159925
ECCENTRICITY   = .0001675
INCLINATION    = 97.2848
RA_OF_ASC_NODE = 284.0361
ARG_OF_PERICENTER = 88.6630
MEAN_ANOMALY   = 338.4865

EPHEMERIS_TYPE = 0
CLASSIFICATION_TYPE = U
NORAD_CAT_ID   = 67551
ELEMENT_SET_NO = 999
REV_AT_EPOCH   = 415
BSTAR          = .12578E-3
MEAN_MOTION_DOT = .18649E-3
MEAN_MOTION_DDOT = 0

CCSDS_OMM_VERS = 2.0
CREATION_DATE  = 
ORIGINATOR     = 

OBJECT_NAME    = STARLINK-36567
OBJECT_ID      = 2026-014W
CENTER_NAME    = EARTH
REF_FRAME      = TEME
TIME_SYSTEM    = UTC
MEAN_ELEMENT_THEORY = SGP/SGP4

EPOCH          = 2026-02-09T12:00:01.999296
MEAN_MOTION    = 15.75141407
ECCENTRICITY   = .0001674
INCLINATION    = 97.2854
RA_OF_ASC_NODE = 284.0128
ARG_OF_PERICENTER = 95.7182
MEAN_ANOMALY   = 283.4327

EPHEMERIS_TYPE = 0
CLASSIFICATION_TYPE = U
NORAD_CAT_ID   = 67552
ELEMENT_SET_NO = 999
REV_AT_EPOCH   = 415
BSTAR          = .43873E-3
MEAN_MOTION_DOT = .65678E-3
MEAN_MOTION_DDOT = 0

