STARLINK-36579          
1 67541U 26014K   26040.50002314  .00099776  00000+0  66394-3 0  9991
2 67541  97.2840 284.0083 0001630  80.9928 276.1643 15.75122658  4157
STARLINK-35934          
1 67542U 26014L   26040.49645388  .00271730  00000+0  13695-2 0  9991
2 67542  97.2841 284.0132 0001508  81.9310 278.2129 15.80913418  4121
STARLINK-36581          
1 67543U 26014M   26040.43195853  .00198640  00000+0  10110-2 0  9990
2 67543  97.2841 283.9469 0001493  80.0370 280.1066 15.80887807  4126
STARLINK-36565          
1 67544U 26014N   26040.49420197  .00142613  00000+0  73172-3 0  9996
2 67544  97.2847 284.0158 0001640  99.9211 260.2243 15.80859232  4135
STARLINK-36583          
1 67545U 26014P   26040.50002314 -.00109428  00000+0 -74145-3 0  9996
2 67545  97.2843 283.9965 0001481  95.2155 239.9353 15.75212812  4153
STARLINK-36580          
1 67546U 26014Q   26040.49176915  .00192727  00000+0  98251-3 0  9990
2 67546  97.2843 284.0155 0001887 109.5969 250.5503 15.80867459  4132
STARLINK-36584          
1 67547U 26014R   26040.42749983  .00194426  00000+0  99035-3 0  9994
2 67547  97.2761 283.9474 0001451  71.4842 288.6584 15.80881666  4124
STARLINK-36586          
1 67548U 26014S   26040.42613244  .00229154  00000+0  11618-2 0  9992
2 67548  97.2850 283.9556 0001523  70.9821 289.1612 15.80893972  4127
STARLINK-36564          
1 67549U 26014T   26040.50002314  .00008403  00000+0  57206-4 0  9999
2 67549  97.2869 284.0218 0001806 101.2014 289.9444 15.75167378  4096
STARLINK-36563          
1 67550U 26014U   26040.50002314  .00072347  00000+0  48316-3 0  9990
2 67550  97.2849 284.0310 0001273 101.3533 313.8085 15.75125647  4152
STARLINK-36566          
1 67551U 26014V   26040.50002314  .00018649  00000+0  12578-3 0  9997
2 67551  97.2848 284.0361 0001675  88.6630 338.4865 15.75159925  4154
STARLINK-36567          
1 67552U 26014W   26040.50002314  .00065678  00000+0  43873-3 0  9994
2 67552  97.2854 284.0128 0001674  95.7182 283.4327 15.75141407  4151
